OBJECT_NAME,OBJECT_ID,EPOCH,MEAN_MOTION,ECCENTRICITY,INCLINATION,RA_OF_ASC_NODE,ARG_OF_PERICENTER,MEAN_ANOMALY,EPHEMERIS_TYPE,CLASSIFICATION_TYPE,NORAD_CAT_ID,ELEMENT_SET_NO,REV_AT_EPOCH,BSTAR,MEAN_MOTION_DOT,MEAN_MOTION_DDOT
LEMUR-2-ALISIA,2025-009DB,2026-07-04T12:18:50.307264,15.03047224,.00032603,97.6947,267.5646,163.9914,196.1415,0,U,62706,999,10276,.12765762E-2,.17169E-3,0
LEMUR-2-ROUNDTRIPPER,2025-009DG,2026-07-04T15:48:39.611520,15.04097418,.00046256,97.7223,268.3147,89.0567,271.1188,0,U,62711,999,8025,.13521976E-2,.18711E-3,0
LEMUR-2-MYNAMEISJEFF,2025-009DH,2026-07-04T15:46:23.811456,15.04089324,.00036094,97.7272,268.7048,123.3284,236.8288,0,U,62712,999,8025,.13195593E-2,.18251E-3,0
LEMUR-2-LEIA-PHILIP,2025-052AN,2026-07-04T15:29:01.236480,14.97368617,.00046082,97.6813,77.3004,148.3131,211.8369,0,U,63246,999,7128,.23855196E-3,.2714E-4,0
LEMUR-2-LIA-MARTIN,2025-052AQ,2026-07-04T15:27:25.072416,14.97957995,.00049035,97.6859,77.8000,117.0608,243.1115,0,U,63248,999,7129,.78212738E-3,.9176E-4,0
LEMUR-2-DELOITTE-1,2025-052BB,2026-07-04T10:08:12.653952,14.97723490,.00023606,97.6889,77.9137,66.0394,294.1075,0,U,63259,999,7127,.43932922E-3,.5094E-4,0
LEMUR-2-EMERSONROSE,2025-052BD,2026-07-04T10:44:09.243744,14.99215108,.00026197,97.6866,78.5276,75.7149,284.4365,0,U,63261,999,7132,.50845904E-3,.6139E-4,0
LEMUR-2-MARACHE-FRAN,2025-052BE,2026-07-04T22:39:49.527936,15.00265967,.00043653,97.6877,79.3717,301.4410,58.6386,0,U,63262,999,7142,.69055897E-3,.8595E-4,0
LEMUR-2-THEFALCONER,2025-052BG,2026-07-03T23:36:20.471328,14.97503207,.00010786,97.6840,77.0825,27.2576,332.8702,0,U,63264,999,7120,.4682205E-3,.5402E-4,0
LEMUR-2-UNTITLED-SC,2025-061A,2026-07-04T16:11:30.181632,15.13598506,.00180908,97.5649,160.9105,199.5372,160.5168,0,U,63351,999,7023,.35991521E-3,.642E-4,0
LEMUR-2-ESPERANZA,2025-061B,2026-07-04T21:57:48.896064,15.13696698,.00177051,97.5656,161.2467,197.6914,162.3703,0,U,63352,999,7027,.35662242E-3,.6378E-4,0
LEMUR-2-KREMPEL-BRO2,2025-061C,2026-07-04T20:54:07.498368,15.14130319,.00188673,97.5703,161.7591,190.5208,169.5632,0,U,63353,999,7028,.32127183E-3,.5812E-4,0
LEMUR-2-THERMORAPTOR,2025-061D,2026-07-04T22:02:05.969760,15.14213222,.00186219,97.5707,161.8849,189.0194,171.0705,0,U,63354,999,7029,.28561314E-3,.517E-4,0
LEMUR-2-NEUROSPICY,2025-061E,2026-07-04T21:19:21.380160,15.14329215,.00163835,97.5633,161.4679,192.3209,167.7625,0,U,63355,999,7029,.32991495E-3,.5998E-4,0
LEMUR-2-TILLINFINITY,2025-061F,2026-07-04T15:39:50.703552,15.14913375,.00179444,97.5620,161.5363,181.2111,178.9080,0,U,63356,999,7028,.31387278E-3,.5802E-4,0
LEMUR-2-KREMPEL-BRO1,2025-061G,2026-07-04T21:25:22.681632,15.14720504,.00185738,97.5621,161.6860,182.0507,178.0652,0,U,63357,999,7031,.32376654E-3,.5956E-4,0
LEMUR-2-LANGER2SPACE,2025-061H,2026-07-04T22:08:38.884128,15.14415820,.00163276,97.5628,161.5229,190.1830,169.9074,0,U,63358,999,7030,.29143033E-3,.5303E-4,0
LEMUR-2-BALTO,2025-052BH,2026-07-04T15:53:31.838784,15.00290454,.00059058,97.6925,79.0708,8.0852,352.0466,0,U,63395,999,7138,.83081624E-3,.10364E-3,0
LEMUR-2-KRISH,2025-135AK,2026-07-04T14:17:13.670304,14.96375761,.00015743,97.7757,300.3533,105.0164,255.1231,0,U,64561,999,5652,.8739787E-3,.9848E-4,0
LEMUR-2-HUBBLE-4,2025-135AP,2026-07-04T13:21:38.697696,14.93664991,.00017085,97.7713,299.2584,195.0132,165.1037,0,U,64565,999,5646,.19126937E-3,.1965E-4,0
LEMUR-2-SEJONG-2,2025-135BL,2026-07-04T22:53:35.600928,14.96859358,.00029084,97.7716,300.8557,264.7808,95.3082,0,U,64586,999,5660,.59463892E-3,.6763E-4,0
LEMUR-2-HUBBLE-5,2025-135BT,2026-07-04T07:14:02.636160,14.94188176,.00040968,97.7732,299.6635,284.2668,75.8097,0,U,64840,999,5646,.14065879E-3,.1449E-4,0
LEMUR-2-KARENDARRELL,2025-135BU,2026-07-04T06:13:46.972416,15.00374837,.00113085,97.7700,301.4418,140.0466,220.1592,0,U,64841,999,5657,.87289329E-3,.10926E-3,0
LEMUR-2-LUCILLE-ROSE,2025-135BV,2026-07-04T00:47:24.239616,15.00372162,.0013426,97.7731,301.2490,223.7635,136.2526,0,U,65403,999,5116,.74465543E-3,.9314E-4,0
LEMUR-2-AFFIE-WAUWIE,2025-248C,2026-07-04T20:15:45.055008,15.27933670,.00082996,45.3925,19.2757,197.3021,162.7586,0,U,66295,999,3729,.15036177E-2,.41727E-3,0
LEMUR-2-DEANANDMAEVE,2025-276N,2026-07-03T04:21:54.766368,15.19930878,.0004383,97.4206,257.3935,311.1776,48.9081,0,U,66678,999,3284,.32677E-3,.6959E-4,0
LEMUR-2-STAS-GORBUK,2025-276W,2026-07-04T15:34:28.434144,15.19578800,.00035712,97.4233,258.8898,302.7538,57.3353,0,U,66686,999,3306,.48241713E-3,.10205E-3,0
LEMUR-2-TEODOR,2025-276DG,2026-07-04T16:18:14.382432,15.21254939,.00023283,97.4142,259.1782,98.6584,261.4915,0,U,66768,999,3310,.49530705E-3,.11005E-3,0
LEMUR-2-LAILA,2025-276DQ,2026-07-04T04:34:03.204768,15.21465807,.00028377,97.4166,258.8280,111.0448,249.1092,0,U,66776,999,3303,.33519732E-3,.7468E-4,0
