LEMUR-2-ALISIA          
1 62706U 25009DB  26185.51308226  .00017169  00000+0  12766-2 0  9993
2 62706  97.6947 267.5646 0003260 163.9914 196.1415 15.03047224102766
LEMUR-2-ROUNDTRIPPER    
1 62711U 25009DG  26185.65879180  .00018711  00000+0  13522-2 0  9991
2 62711  97.7223 268.3147 0004625  89.0567 271.1188 15.04097418 80254
LEMUR-2-MYNAMEISJEFF    
1 62712U 25009DH  26185.65722004  .00018251  00000+0  13196-2 0  9990
2 62712  97.7272 268.7048 0003609 123.3284 236.8288 15.04089324 80258
LEMUR-2-LEIA-PHILIP     
1 63246U 25052AN  26185.64515320  .00002714  00000+0  23855-3 0  9992
2 63246  97.6813  77.3004 0004608 148.3131 211.8369 14.97368617 71287
LEMUR-2-LIA-MARTIN      
1 63248U 25052AQ  26185.64404019  .00009176  00000+0  78213-3 0  9993
2 63248  97.6859  77.8000 0004903 117.0608 243.1115 14.97957995 71291
LEMUR-2-DELOITTE-1      
1 63259U 25052BB  26185.42236868  .00005094  00000+0  43933-3 0  9992
2 63259  97.6889  77.9137 0002360  66.0394 294.1075 14.97723490 71278
LEMUR-2-EMERSONROSE     
1 63261U 25052BD  26185.44732921  .00006139  00000+0  50846-3 0  9990
2 63261  97.6866  78.5276 0002619  75.7149 284.4365 14.99215108 71323
LEMUR-2-MARACHE-FRAN    
1 63262U 25052BE  26185.94432324  .00008595  00000+0  69056-3 0  9991
2 63262  97.6877  79.3717 0004365 301.4410  58.6386 15.00265967 71421
LEMUR-2-THEFALCONER     
1 63264U 25052BG  26184.98357027  .00005402  00000+0  46822-3 0  9992
2 63264  97.6840  77.0825 0001078  27.2576 332.8702 14.97503207 71204
LEMUR-2-UNTITLED-SC     
1 63351U 25061A   26185.67465488  .00006420  00000+0  35992-3 0  9994
2 63351  97.5649 160.9105 0018090 199.5372 160.5168 15.13598506 70238
LEMUR-2-ESPERANZA       
1 63352U 25061B   26185.91514926  .00006378  00000+0  35662-3 0  9990
2 63352  97.5656 161.2467 0017705 197.6914 162.3703 15.13696698 70275
LEMUR-2-KREMPEL-BRO2    
1 63353U 25061C   26185.87092012  .00005812  00000+0  32127-3 0  9998
2 63353  97.5703 161.7591 0018867 190.5208 169.5632 15.14130319 70285
LEMUR-2-THERMORAPTOR    
1 63354U 25061D   26185.91812465  .00005170  00000+0  28561-3 0  9990
2 63354  97.5707 161.8849 0018621 189.0194 171.0705 15.14213222 70297
LEMUR-2-NEUROSPICY      
1 63355U 25061E   26185.88844190  .00005998  00000+0  32991-3 0  9997
2 63355  97.5633 161.4679 0016383 192.3209 167.7625 15.14329215 70293
LEMUR-2-TILLINFINITY    
1 63356U 25061F   26185.65267018  .00005802  00000+0  31387-3 0  9993
2 63356  97.5620 161.5363 0017944 181.2111 178.9080 15.14913375 70288
LEMUR-2-KREMPEL-BRO1    
1 63357U 25061G   26185.89262363  .00005956  00000+0  32377-3 0  9998
2 63357  97.5621 161.6860 0018573 182.0507 178.0652 15.14720504 70310
LEMUR-2-LANGER2SPACE    
1 63358U 25061H   26185.92267227  .00005303  00000+0  29143-3 0  9990
2 63358  97.5628 161.5229 0016327 190.1830 169.9074 15.14415820 70308
LEMUR-2-BALTO           
1 63395U 25052BH  26185.66217406  .00010364  00000+0  83082-3 0  9991
2 63395  97.6925  79.0708 0005905   8.0852 352.0466 15.00290454 71384
LEMUR-2-KRISH           
1 64561U 25135AK  26185.59529711  .00009848  00000+0  87398-3 0  9995
2 64561  97.7757 300.3533 0001574 105.0164 255.1231 14.96375761 56523
LEMUR-2-HUBBLE-4        
1 64565U 25135AP  26185.55669789  .00001965  00000+0  19127-3 0  9992
2 64565  97.7713 299.2584 0001708 195.0132 165.1037 14.93664991 56464
LEMUR-2-SEJONG-2        
1 64586U 25135BL  26185.95388427  .00006763  00000+0  59464-3 0  9995
2 64586  97.7716 300.8557 0002908 264.7808  95.3082 14.96859358 56602
LEMUR-2-HUBBLE-5        
1 64840U 25135BT  26185.30141940  .00001449  00000+0  14066-3 0  9999
2 64840  97.7732 299.6635 0004096 284.2668  75.8097 14.94188176 56460
LEMUR-2-KARENDARRELL    
1 64841U 25135BU  26185.25957144  .00010926  00000+0  87289-3 0  9992
2 64841  97.7700 301.4418 0011308 140.0466 220.1592 15.00374837 56572
LEMUR-2-LUCILLE-ROSE    
1 65403U 25135BV  26185.03291944  .00009314  00000+0  74466-3 0  9994
2 65403  97.7731 301.2490 0013426 223.7635 136.2526 15.00372162 51162
LEMUR-2-AFFIE-WAUWIE    
1 66295U 25248C   26185.84427147  .00041727  00000+0  15036-2 0  9995
2 66295  45.3925  19.2757 0008299 197.3021 162.7586 15.27933670 37299
LEMUR-2-DEANANDMAEVE    
1 66678U 25276N   26184.18188387  .00006959  00000+0  32677-3 0  9996
2 66678  97.4206 257.3935 0004383 311.1776  48.9081 15.19930878 32849
LEMUR-2-STAS-GORBUK     
1 66686U 25276W   26185.64894021  .00010205  00000+0  48242-3 0  9990
2 66686  97.4233 258.8898 0003571 302.7538  57.3353 15.19578800 33066
LEMUR-2-TEODOR          
1 66768U 25276DG  26185.67933313  .00011005  00000+0  49531-3 0  9993
2 66768  97.4142 259.1782 0002328  98.6584 261.4915 15.21254939 33107
LEMUR-2-LAILA           
1 66776U 25276DQ  26185.19031487  .00007468  00000+0  33520-3 0  9999
2 66776  97.4166 258.8280 0002837 111.0448 249.1092 15.21465807 33034
